FLOCK 4H-15             
1 66718U 25276BE  26117.20230698  .00007833  00000+0  37750-3 0  9992
2 66718  97.4237 191.5673 0004601 173.4513 186.6782 15.18984470 22671
FLOCK 4H-16             
1 66719U 25276BF  26117.18741245  .00007887  00000+0  37793-3 0  9991
2 66719  97.4253 191.6184 0004919 163.0941 197.0459 15.19182277 22673
FLOCK 4H-18             
1 66721U 25276BH  26117.19135447  .00007713  00000+0  36990-3 0  9992
2 66721  97.4195 191.5001 0003840 181.1659 178.9567 15.19164406 22679
FLOCK 4H-19             
1 66722U 25276BJ  26117.18993582  .00007308  00000+0  33770-3 0  9997
2 66722  97.4196 191.8111 0003278 105.9734 254.1862 15.20468815 21980
FLOCK 4H-20             
1 66723U 25276BK  26117.19876553  .00008841  00000+0  40684-3 0  9992
2 66723  97.4233 191.8727 0004183 113.4263 246.7412 15.20550762 21940
FLOCK 4H-21             
1 66724U 25276BL  26117.20954221  .00006819  00000+0  31770-3 0  9993
2 66724  97.4199 191.7892 0004016 113.9126 246.2530 15.20207791 21949
FLOCK 4H-22             
1 66725U 25276BM  26117.02609681  .00007596  00000+0  36057-3 0  9997
2 66725  97.4189 191.4003 0002762 173.1620 186.9653 15.19529568 22655
FLOCK 4H-23             
1 66726U 25276BN  26117.18963360  .00007670  00000+0  36805-3 0  9996
2 66726  97.4258 191.6235 0005235 156.7102 203.4371 15.19139483 22679
FLOCK 4H-24             
1 66727U 25276BP  26116.78447252  .00007522  00000+0  36013-3 0  9996
2 66727  97.4251 191.2462 0004322 169.8200 190.3123 15.19228474 22613
FLOCK 4H-25             
1 66728U 25276BQ  26117.02579584  .00007202  00000+0  33654-3 0  9992
2 66728  97.4210 191.5990 0002264 101.4505 258.6984 15.20092218 21946
FLOCK 4H-26             
1 66729U 25276BR  26117.19973097  .00007570  00000+0  36476-3 0  9991
2 66729  97.4208 191.5144 0005250 169.4467 190.6878 15.18998890 22670
FLOCK 4H-27             
1 66730U 25276BS  26117.17693919  .00007129  00000+0  33574-3 0  9999
2 66730  97.4184 191.6528 0002282 113.4112 246.7363 15.19823687 22685
FLOCK 4H-28             
1 66731U 25276BT  26117.19821550  .00007739  00000+0  37230-3 0  9996
2 66731  97.4194 191.4928 0004841 170.1588 189.9742 15.19052861 22675
FLOCK 4H-29             
1 66732U 25276BU  26117.18641009  .00007229  00000+0  34716-3 0  9995
2 66732  97.4189 191.4892 0003450 173.7085 186.4193 15.19142552 22675
FLOCK 4H-30             
1 66733U 25276BV  26117.18384951  .00007591  00000+0  36345-3 0  9998
2 66733  97.4250 191.6176 0004670 169.0198 191.1139 15.19222506 22671
FLOCK 4H-31             
1 66734U 25276BW  26117.19433610  .00007372  00000+0  35491-3 0  9995
2 66734  97.4186 191.4771 0003977 172.7361 187.3932 15.19045245 22672
FLOCK 4H-32             
1 66735U 25276BX  26117.18823378  .00007402  00000+0  35526-3 0  9992
2 66735  97.4242 191.5962 0005128 167.2213 192.9153 15.19145696 22672
